1 45125U 19071Q   22365.49758165  .00027985  00000-0  51304-3 0  9995
2 45125  51.6352 174.6439 0009236 146.9841 213.1726 15.49031911163655
1 45125U 19071Q   22365.75563549  .00028771  00000-0  52690-3 0  9997
2 45125  51.6352 173.3676 0009159 147.6232 212.5321 15.49046965163693
1 45125U 19071Q   22365.75563549  .00028771  00000-0  52690-3 0  9997
2 45125  51.6352 173.3676 0009159 147.6232 212.5321 15.49046965163693
1 45125U 19071Q   23001.46526965  .00029238  00000-0  53448-3 0  9995
2 45125  51.6354 169.8563 0009100 150.0892 210.0618 15.49090555163805
1 45125U 19071Q   23001.72331389  .00028362  00000-0  51853-3 0  9993
2 45125  51.6353 168.5797 0009015 150.8013 209.3481 15.49104224163849
1 45125U 19071Q   23002.17488518  .00028864  00000-0  52704-3 0  9993
2 45125  51.6352 166.3451 0008969 152.4139 207.7327 15.49131173163917
1 45125U 19071Q   23002.49743171  .00028449  00000-0  51928-3 0  9993
2 45125  51.6352 164.7490 0008969 153.4113 206.7337 15.49149230163963
1 45125U 19071Q   23002.62644931  .00024097  00000-0  44129-3 0  9992
2 45125  51.6351 164.1108 0008930 153.8147 206.3294 15.49152743163984
1 45125U 19071Q   23003.46505054  .00026559  00000-0  48463-3 0  9997
2 45125  51.6349 159.9608 0008881 156.7279 203.4113 15.49197893164110
1 45125U 19071Q   23003.46505054  .00026559  00000-0  48463-3 0  9997
2 45125  51.6349 159.9608 0008881 156.7279 203.4113 15.49197893164110
1 45125U 19071Q   23004.43263753  .00031505  00000-0  57191-3 0  9997
2 45125  51.6350 155.1723 0008789 160.2846 199.8484 15.49253024164269
1 45125U 19071Q   23004.62615007  .00036307  00000-0  65709-3 0  9990
2 45125  51.6351 154.2149 0008731 160.8944 199.2373 15.49268935164295
1 45125U 19071Q   23004.62615007  .00036307  00000-0  65709-3 0  9990
2 45125  51.6351 154.2149 0008731 160.8944 199.2373 15.49268935164295
1 45125U 19071Q   23005.40018329  .00027967  00000-0  50769-3 0  9993
2 45125  51.6354 150.3834 0008668 163.6339 196.4931 15.49318406164416
1 45125U 19071Q   23005.65818877  .00029449  00000-0  53374-3 0  9998
2 45125  51.6355 149.1067 0008589 164.3895 195.7359 15.49335973164456
1 45125U 19071Q   23005.65818877  .00029449  00000-0  53374-3 0  9998
2 45125  51.6355 149.1067 0008589 164.3895 195.7359 15.49335973164456
1 45125U 19071Q   23006.43218552  .00033805  00000-0  60991-3 0  9993
2 45125  51.6360 145.2749 0008483 167.2645 192.8559 15.49395378164572
1 45125U 19071Q   23006.43218552  .00033805  00000-0  60991-3 0  9993
2 45125  51.6360 145.2749 0008483 167.2645 192.8559 15.49395378164572
1 45125U 19071Q   23007.65762837  .00032965  00000-0  59339-3 0  9998
2 45125  51.6362 139.2091 0008298 171.5914 188.5215 15.49474610164767
1 45125U 19071Q   23007.65762837  .00032965  00000-0  59339-3 0  9998
2 45125  51.6362 139.2091 0008298 171.5914 188.5215 15.49474610164767
1 45125U 19071Q   23008.36706706  .00030523  00000-0  54937-3 0  9997
2 45125  51.6363 135.6970 0008211 174.3867 185.7215 15.49518397164879
1 45125U 19071Q   23009.59240929  .00032427  00000-0  58131-3 0  9998
2 45125  51.6370 129.6303 0007982 179.1195 180.9809 15.49602758165064
1 45125U 19071Q   23009.59240929  .00032427  00000-0  58131-3 0  9998
2 45125  51.6370 129.6303 0007982 179.1195 180.9809 15.49602758165064
1 45125U 19071Q   23009.91485700  .00032477  00000-0  58176-3 0  9996
2 45125  51.6369 128.0337 0007925 180.1429 179.9558 15.49624659165110
1 45125U 19071Q   23010.55973861  .00033325  00000-0  59577-3 0  9997
2 45125  51.6369 124.8406 0007877 182.0472 178.0486 15.49668089165212
1 45125U 19071Q   23010.88217260  .00036328  00000-0  64792-3 0  9998
2 45125  51.6364 123.2438 0007857 183.2152 176.8787 15.49692916165262
1 45125U 19071Q   23011.59151007  .00038273  00000-0  68079-3 0  9996
2 45125  51.6363 119.7308 0007802 185.7510 174.3390 15.49744274165372
1 45125U 19071Q   23011.72047786  .00038925  00000-0  69194-3 0  9992
2 45125  51.6363 119.0923 0007769 186.0842 174.0053 15.49755000165396
1 45125U 19071Q   23012.55874747  .00037729  00000-0  66952-3 0  9999
2 45125  51.6363 114.9403 0007682 189.3258 170.7589 15.49819368165524
1 45125U 19071Q   23012.55874747  .00037729  00000-0  66952-3 0  9999
2 45125  51.6363 114.9403 0007682 189.3258 170.7589 15.49819368165524
1 45125U 19071Q   23013.52593632  .00040707  00000-0  71945-3 0  9996
2 45125  51.6361 110.1489 0007540 193.4970 166.5818 15.49900129165674
1 45125U 19071Q   23014.29965005  .00046348  00000-0  81541-3 0  9998
2 45125  51.6361 106.3156 0007411 196.3609 163.7141 15.49971895165799
1 45125U 19071Q   23014.81544096  .00040013  00000-0  70463-3 0  9993
2 45125  51.6358 103.7606 0007344 197.6068 162.4667 15.50011649165876
1 45125U 19071Q   23015.58909829  .00047154  00000-0  82610-3 0  9997
2 45125  51.6358  99.9270 0007265 200.5778 159.4919 15.50084750165995
1 45125U 19071Q   23015.78250654  .00046027  00000-0  80612-3 0  9992
2 45125  51.6359  98.9687 0007255 201.2744 158.7944 15.50103899166028
1 45125U 19071Q   23015.84697522  .00053143  00000-0  92829-3 0  9998
2 45125  51.6360  98.6493 0007252 201.4250 158.6437 15.50116129166030
1 45125U 19071Q   23016.49164738  .00052849  00000-0  92104-3 0  9996
2 45125  51.6363  95.4544 0007168 203.8147 156.2511 15.50183861166137
1 45125U 19071Q   23016.49164738  .00052849  00000-0  92104-3 0  9996
2 45125  51.6363  95.4544 0007168 203.8147 156.2511 15.50183861166137
1 45125U 19071Q   23016.74950899  .00047210  00000-0  82356-3 0  9999
2 45125  51.6364  94.1765 0007147 204.7500 155.3147 15.50205950166172
1 45125U 19071Q   23017.20075774  .00040237  00000-0  70283-3 0  9999
2 45125  51.6368  91.9400 0007086 206.4462 153.6166 15.50242221166247
1 45125U 19071Q   23017.20075774  .00040237  00000-0  70283-3 0  9999
2 45125  51.6368  91.9400 0007086 206.4462 153.6166 15.50242221166247
1 45125U 19071Q   23018.23214370  .00045394  00000-0  78892-3 0  9993
2 45125  51.6375  86.8281 0006919 210.5068 149.5519 15.50330956166404
1 45125U 19071Q   23018.42552206  .00047767  00000-0  82900-3 0  9998
2 45125  51.6371  85.8695 0006872 210.7096 149.3492 15.50348359166436
1 45125U 19071Q   23018.87673013  .00044449  00000-0  77128-3 0  9997
2 45125  51.6371  83.6328 0006853 211.7751 148.2825 15.50385506166504
1 45125U 19071Q   23019.45683787  .00040680  00000-0  70572-3 0  9990
2 45125  51.6370  80.7574 0006799 214.0448 146.0106 15.50432759166592
1 45125U 19071Q   23019.45683787  .00040680  00000-0  70572-3 0  9990
2 45125  51.6370  80.7574 0006799 214.0448 146.0106 15.50432759166592
1 45125U 19071Q   23020.42364272  .00040957  00000-0  70838-3 0  9996
2 45125  51.6372  75.9640 0006716 217.7824 142.2694 15.50515749166749
1 45125U 19071Q   23020.74589956  .00041820  00000-0  72232-3 0  9999
2 45125  51.6372  74.3661 0006669 219.0409 141.0100 15.50544742166795
1 45125U 19071Q   23022.42153962  .00042259  00000-0  72601-3 0  9997
2 45125  51.6365  66.0560 0006451 224.7349 135.3121 15.50692302167053
1 45125U 19071Q   23024.09702482  .00043306  00000-0  73998-3 0  9993
2 45125  51.6365  57.7445 0006346 230.5297 129.5131 15.50834708167315
1 45125U 19071Q   23025.57906085  .00036253  00000-0  61882-3 0  9994
2 45125  51.6369  50.3910 0006197 235.5953 124.4451 15.50948105167544
1 45125U 19071Q   23025.57906085  .00036253  00000-0  61882-3 0  9994
2 45125  51.6369  50.3910 0006197 235.5953 124.4451 15.50948105167544
1 45125U 19071Q   23025.77236212  .00037157  00000-0  63366-3 0  9997
2 45125  51.6369  49.4321 0006150 236.5800 123.4602 15.50963061167578
1 45125U 19071Q   23026.35225526  .00036573  00000-0  62294-3 0  9998
2 45125  51.6374  46.5554 0006105 238.4512 121.5881 15.51004893167669
1 45125U 19071Q   23027.06099084  .00038196  00000-0  64883-3 0  9994
2 45125  51.6374  43.0386 0006105 240.8079 119.2300 15.51060758167773
1 45125U 19071Q   23027.25427848  .00034189  00000-0  58165-3 0  9992
2 45125  51.6376  42.0795 0006094 241.5036 118.5340 15.51070986167800
1 45125U 19071Q   23028.41396721  .00035523  00000-0  60215-3 0  9998
2 45125  51.6374  36.3235 0006018 246.0533 113.9826 15.51155102167982
1 45125U 19071Q   23028.41396721  .00035523  00000-0  60215-3 0  9998
2 45125  51.6374  36.3235 0006018 246.0533 113.9826 15.51155102167982
1 45125U 19071Q   23028.73609237  .00031673  00000-0  53762-3 0  9993
2 45125  51.6373  34.7246 0006007 247.4944 112.5410 15.51174769168035
1 45125U 19071Q   23029.25148356  .00031018  00000-0  52609-3 0  9993
2 45125  51.6374  32.1659 0005978 248.7200 111.3152 15.51207940168118
1 45125U 19071Q   23029.25148356  .00031018  00000-0  52609-3 0  9993
2 45125  51.6374  32.1659 0005978 248.7200 111.3152 15.51207940168118
1 45125U 19071Q   23030.28223633  .00028501  00000-0  48318-3 0  9995
2 45125  51.6371  27.0501 0005926 252.5885 107.4456 15.51266476168278
1 45125U 19071Q   23030.28223633  .00028501  00000-0  48318-3 0  9995
2 45125  51.6371  27.0501 0005926 252.5885 107.4456 15.51266476168278
1 45125U 19071Q   23030.47549809  .00028525  00000-0  48339-3 0  9991
2 45125  51.6370  26.0909 0005927 253.2480 106.7859 15.51277979168301
1 45125U 19071Q   23031.37736767  .00031036  00000-0  52408-3 0  9995
2 45125  51.6371  21.6144 0005914 256.6158 103.4173 15.51331888168447
1 45125U 19071Q   23031.37736767  .00031036  00000-0  52408-3 0  9995
2 45125  51.6371  21.6144 0005914 256.6158 103.4173 15.51331888168447
1 45125U 19071Q   23031.95712329  .00031496  00000-0  53098-3 0  9993
2 45125  51.6372  18.7355 0005893 258.1554 101.8774 15.51370040168534
